     2.100          NAVIGATION                              RINEX VERSION / TYPE
fic2rin                                 02/02/2016 00:23:07 PGM / RUN BY / DATE
                                                            END OF HEADER
26 16  2  1 15 59 44.0 -.236352905631D-03 -.161435309565D-10  .000000000000D+00
     .300000000000D+01 -.368750000000D+02  .448518682603D-08 -.225351453481D+01
    -.184774398804D-05  .784672680311D-03  .622496008873D-05  .515370400047D+04
     .143984000000D+06  .521540641785D-07 -.226045063465D+01  .670552253723D-07
     .960640410598D+00  .261968750000D+03 -.158300001282D+00 -.820319883902D-08
    -.104647216119D-09  .100000000000D+01  .188200000000D+04  .000000000000D+00
     .240000000000D+01  .000000000000D+00  .698491930962D-08  .300000000000D+01
     .138756000000D+06  .400000000000D+01
25 16  2  1 15 59 44.0 -.109523069113D-03 -.659383658785D-11  .000000000000D+00
     .170000000000D+02 -.338750000000D+02  .402195324478D-08 -.173497917957D+01
    -.174902379513D-05  .506377290003D-02  .634230673313D-05  .515356353188D+04
     .143984000000D+06  .298023223877D-07 -.225350940874D+01 -.689178705215D-07
     .978613732881D+00  .266718750000D+03  .695732526201D+00 -.789604318761D-08
    -.130005415247D-09  .100000000000D+01  .188200000000D+04  .000000000000D+00
     .240000000000D+01  .000000000000D+00  .558793544769D-08  .170000000000D+02
     .142506000000D+06  .400000000000D+01
16 16  2  1 15 59 44.0 -.433861277997D-04  .318323145621D-11  .000000000000D+00
     .110000000000D+02 -.373125000000D+02  .375694220601D-08  .306534942728D+01
    -.191107392311D-05  .848358671647D-02  .663474202156D-05  .515370264626D+04
     .143984000000D+06 -.242143869400D-07 -.218521223703D+01 -.465661287308D-07
     .990779005602D+00  .269531250000D+03  .321024756290D+00 -.776103756408D-08
    -.112147528538D-09  .100000000000D+01  .188200000000D+04  .000000000000D+00
     .240000000000D+01  .000000000000D+00 -.102445483208D-07  .110000000000D+02
     .143436000000D+06  .400000000000D+01
16 16  2  1 17 59 44.0 -.433633103967D-04  .318323145621D-11  .000000000000D+00
     .120000000000D+02 -.403437500000D+02  .376337104522D-08 -.216766972803D+01
    -.214204192162D-05  .848412781488D-02  .682286918163D-05  .515370178032D+04
     .151184000000D+06  .149011611938D-07 -.218526829459D+01 -.614672899246D-07
     .990778195146D+00  .265000000000D+03  .321017084747D+00 -.778032408173D-08
    -.907180644858D-10  .100000000000D+01  .188200000000D+04  .000000000000D+00
     .240000000000D+01  .000000000000D+00 -.102445483208D-07  .120000000000D+02
     .144006000000D+06  .400000000000D+01
19 16  2  1 17 59 44.0 -.524700619280D-03 -.113686837722D-12  .000000000000D+00
     .230000000000D+02 -.344062500000D+02  .412231456809D-08  .296354550528D+00
    -.164657831192D-05  .112498464296D-01  .814720988274D-05  .515519429970D+04
     .151184000000D+06  .372529029846D-08 -.111274870766D+01  .230967998505D-06
     .972132670782D+00  .230562500000D+03  .675937698284D+00 -.798033241288D-08
     .211437378644D-09  .100000000000D+01  .188200000000D+04  .000000000000D+00
     .240000000000D+01  .000000000000D+00 -.153668224812D-07  .230000000000D+02
     .144006000000D+06  .400000000000D+01
25 16  2  1 17 59 44.0 -.109570100904D-03 -.659383658785D-11  .000000000000D+00
     .180000000000D+02 -.294375000000D+02  .414624413628D-08 -.684799055372D+00
    -.163167715073D-05  .506410177331D-02  .603124499321D-05  .515356316376D+04
     .151184000000D+06  .465661287308D-07 -.225356626505D+01  .109896063805D-06
     .978611857420D+00  .271531250000D+03  .695797867437D+00 -.805176395972D-08
    -.208937274505D-09  .100000000000D+01  .188200000000D+04  .000000000000D+00
     .240000000000D+01  .000000000000D+00  .558793544769D-08  .180000000000D+02
     .144006000000D+06  .400000000000D+01
26 16  2  1 17 59 44.0 -.236468855292D-03 -.161435309565D-10  .000000000000D+00
     .500000000000D+01 -.364687500000D+02  .443625621645D-08 -.120327306899D+01
    -.189244747162D-05  .784661620855D-03  .616721808910D-05  .515370410538D+04
     .151184000000D+06 -.502914190292D-07 -.226050901678D+01 -.372529029846D-08
     .960639418739D+00  .261468750000D+03 -.158379848814D+00 -.816462580372D-08
    -.200722646618D-09  .100000000000D+01  .188200000000D+04  .000000000000D+00
     .240000000000D+01  .000000000000D+00  .698491930962D-08  .500000000000D+01
     .144006000000D+06  .400000000000D+01
 1 16  2  1 18  0  0.0  .106240622699D-04  .102318153949D-11  .000000000000D+00
     .660000000000D+02 -.200937500000D+02  .463519307440D-08  .996579661577D+00
    -.113621354103D-05  .500668247696D-02  .701285898685D-05  .515365192223D+04
     .151200000000D+06  .372529029846D-08 -.153412901075D+00  .577419996262D-07
     .964026373991D+00  .246062500000D+03  .472719884326D+00 -.813891044686D-08
     .203222750758D-09  .100000000000D+01  .188200000000D+04  .000000000000D+00
     .240000000000D+01  .000000000000D+00  .512227416039D-08  .660000000000D+02
     .144006000000D+06  .400000000000D+01
 2 16  2  1 18  0  0.0  .599491875619D-03  .113686837722D-12  .000000000000D+00
     .670000000000D+02 -.194375000000D+02  .508164024214D-08  .149508900834D+01
    -.102818012238D-05  .153660523938D-01  .726059079170D-05  .515371494675D+04
     .151200000000D+06 -.413507223129D-06 -.196407883485D+00  .111758708954D-07
     .942740219589D+00  .230656250000D+03 -.217501872041D+01 -.848892502637D-08
     .234295473633D-09  .100000000000D+01  .188200000000D+04  .000000000000D+00
     .240000000000D+01  .000000000000D+00 -.204890966415D-07  .670000000000D+02
     .144006000000D+06  .400000000000D+01
 3 16  2  1 18  0  0.0 -.192006118596D-04 -.488853402203D-11  .000000000000D+00
     .960000000000D+02 -.188437500000D+02  .480341436720D-08 -.256217660197D+01
    -.968575477600D-06  .294566969387D-03  .849924981594D-05  .515377213860D+04
     .151200000000D+06  .391155481339D-07  .887384799482D+00 -.260770320892D-07
     .959179847816D+00  .217906250000D+03  .297411068209D+01 -.806140721854D-08
    -.137862885400D-09  .100000000000D+01  .188200000000D+04  .000000000000D+00
     .340000000000D+01  .000000000000D+00  .186264514923D-08  .960000000000D+02
     .144006000000D+06  .400000000000D+01
 5 16  2  1 18  0  0.0 -.149980187416D-03  .352429196937D-11  .000000000000D+00
     .260000000000D+02 -.205937500000D+02  .507128266785D-08 -.234429690807D+01
    -.126846134663D-05  .458581955172D-02  .807456672192D-05  .515372229958D+04
     .151200000000D+06  .186264514923D-07  .877024258575D+00 -.117346644402D-06
     .946302003791D+00  .216625000000D+03  .484615182830D+00 -.821712799065D-08
    -.657170230921D-10  .100000000000D+01  .188200000000D+04  .000000000000D+00
     .240000000000D+01  .000000000000D+00 -.107102096081D-07  .260000000000D+02
     .144006000000D+06  .400000000000D+01
 6 16  2  1 18  0  0.0  .138663686812D-03  .613908923697D-11  .000000000000D+00
     .730000000000D+02 -.170937500000D+02  .452125975719D-08  .213854847113D+01
    -.780448317528D-06  .276792328805D-03  .713765621185D-05  .515362813568D+04
     .151200000000D+06 -.242143869400D-07 -.161860967713D+00 -.409781932831D-07
     .963873813579D+00  .240906250000D+03 -.222035103044D+01 -.804354933183D-08
     .292155026572D-09  .100000000000D+01  .188200000000D+04  .000000000000D+00
     .240000000000D+01  .000000000000D+00  .419095158577D-08  .730000000000D+02
     .144006000000D+06  .400000000000D+01
 7 16  2  1 18  0  0.0  .471414532512D-03 -.159161572810D-11  .000000000000D+00
     .550000000000D+02  .500312500000D+02  .454554648311D-08  .296461472285D+00
     .261142849922D-05  .903411919717D-02  .530481338501D-05  .515367729187D+04
     .151200000000D+06  .745058059692D-08  .300585923454D+01  .819563865662D-07
     .967912248676D+00  .277406250000D+03 -.267993392943D+01 -.834213319762D-08
    -.126790995640D-09  .100000000000D+01  .188200000000D+04  .000000000000D+00
     .340000000000D+01  .000000000000D+00 -.111758708954D-07  .550000000000D+02
     .144006000000D+06  .400000000000D+01
 8 16  2  1 18  0  0.0 -.222502276301D-04 -.136424205266D-11  .000000000000D+00
     .590000000000D+02 -.294062500000D+02  .436875340469D-08 -.194368855685D+01
    -.138580799103D-05  .178732071072D-02  .846013426781D-05  .515364463615D+04
     .151200000000D+06  .447034835815D-07 -.121284057956D+01  .596046447754D-07
     .961864959342D+00  .215937500000D+03 -.142432782909D+01 -.802783439153D-08
     .245367363393D-09  .100000000000D+01  .188200000000D+04  .000000000000D+00
     .240000000000D+01  .000000000000D+00  .465661287308D-08  .590000000000D+02
     .144006000000D+06  .400000000000D+01
 9 16  2  1 18  0  0.0  .620037317276D-04  .773070496507D-11  .000000000000D+00
     .240000000000D+02  .447187500000D+02  .469233831187D-08  .313228529520D+01
     .244379043579D-05  .620593898930D-03  .963173806667D-05  .515365009880D+04
     .151200000000D+06  .372529029846D-07  .192828949201D+01  .186264514923D-07
     .955398450352D+00  .191968750000D+03  .188333936055D+01 -.809176562595D-08
    -.596453416107D-10  .100000000000D+01  .188200000000D+04  .000000000000D+00
     .240000000000D+01  .000000000000D+00  .139698386192D-08  .240000000000D+02
     .144006000000D+06  .400000000000D+01
10 16  2  1 18  0  0.0  .473689287901D-04 -.272848410532D-11  .000000000000D+00
     .280000000000D+02 -.137500000000D+02  .470483883257D-08 -.110415677766D+01
    -.759959220886D-06  .108422874473D-02  .831112265587D-05  .515368206024D+04
     .151200000000D+06  .167638063431D-07  .883280015198D+00  .409781932831D-07
     .959446603614D+00  .217593750000D+03 -.292457587363D+01 -.802211986778D-08
    -.100718481043D-09  .100000000000D+01  .188200000000D+04  .000000000000D+00
     .240000000000D+01  .000000000000D+00  .232830643654D-08  .280000000000D+02
     .144006000000D+06  .400000000000D+01
